[{"OBJECT_NAME":"WEILAI 1R","OBJECT_ID":"2019-093F","EPOCH":"2026-03-09T22:33:48.244608","MEAN_MOTION":14.997592,"ECCENTRICITY":0.00116762,"INCLINATION":97.7939,"RA_OF_ASC_NODE":158.7373,"ARG_OF_PERICENTER":23.5076,"MEAN_ANOMALY":336.6679,"EPHEMERIS_TYPE":0,"CLASSIFICATION_TYPE":"U","NORAD_CAT_ID":44884,"ELEMENT_SET_NO":999,"REV_AT_EPOCH":33754,"BSTAR":0.00050142794,"MEAN_MOTION_DOT":6.146e-5,"MEAN_MOTION_DDOT":0},{"OBJECT_NAME":"STARLINK-5849","OBJECT_ID":"2023-037L","EPOCH":"2026-03-09T22:35:24.848448","MEAN_MOTION":14.98330398,"ECCENTRICITY":0.00027473,"INCLINATION":69.9978,"RA_OF_ASC_NODE":283.9917,"ARG_OF_PERICENTER":267.7241,"MEAN_ANOMALY":92.3604,"EPHEMERIS_TYPE":0,"CLASSIFICATION_TYPE":"U","NORAD_CAT_ID":55924,"ELEMENT_SET_NO":999,"REV_AT_EPOCH":16401,"BSTAR":-3.7832407e-5,"MEAN_MOTION_DOT":-5.44e-6,"MEAN_MOTION_DDOT":0}]
